COMMENT,ORIGINATOR,NORAD_CAT_ID,OBJECT_NAME,OBJECT_TYPE,CLASSIFICATION_TYPE,INTLDES,EPOCH,EPOCH_MICROSECONDS,MEAN_MOTION,ECCENTRICITY,INCLINATION,RA_OF_ASC_NODE,ARG_OF_PERICENTER,MEAN_ANOMALY,EPHEMERIS_TYPE,ELEMENT_SET_NO,REV_AT_EPOCH,BSTAR,MEAN_MOTION_DOT,MEAN_MOTION_DDOT,FILE,TLE_LINE0,TLE_LINE1,TLE_LINE2,OBJECT_ID,OBJECT_NUMBER,SEMIMAJOR_AXIS,PERIOD,APOGEE,PERIGEE,DECAYED,date
GENERATED VIA SPACETRACK.ORG API,18 SPCS,48896,SPACEBEE-105,PAYLOAD,U,21059T,2023/1/24 8:30,200032,15.21862565,0.000863,97.5771,158.8995,47.4951,312.7012,0,999,8744,0.0013634,0.00031068,0,3759769,0 SPACEBEE-105,1 48896U 21059T   23024.35481713  .00031068  00000-0  13634-2 0  9992,2 48896  97.5771 158.8995 0008630  47.4951 312.7012 15.21862565 87445,2021-059T,48896,6878.36,94.621,506.161,494.289,0,2023/2/16
GENERATED VIA SPACETRACK.ORG API,18 SPCS,48896,SPACEBEE-105,PAYLOAD,U,21059T,2023/1/25 8:11,852704,15.21911018,0.0008577,97.5768,159.8926,43.2648,316.926,0,999,8759,0.0010584,0.00024113,0,3760872,0 SPACEBEE-105,1 48896U 21059T   23025.34106311  .00024113  00000-0  10584-2 0  9994,2 48896  97.5768 159.8926 0008577  43.2648 316.9260 15.21911018 87598,2021-059T,48896,6878.214,94.618,505.978,494.179,0,2023/2/17
GENERATED VIA SPACETRACK.ORG API,18 SPCS,48896,SPACEBEE-105,PAYLOAD,U,21059T,2023/1/25 14:29,494560,15.21924661,0.0008512,97.5766,160.1574,42.4973,317.692,0,999,8763,0.0011318,0.00025806,0,3761297,0 SPACEBEE-105,1 48896U 21059T   23025.60405665  .00025806  00000-0  11318-2 0  9993,2 48896  97.5766 160.1574 0008512  42.4973 317.6920 15.21924661 87635,2021-059T,48896,6878.173,94.617,505.892,494.183,0,2023/2/18
GENERATED VIA SPACETRACK.ORG API,18 SPCS,48896,SPACEBEE-105,PAYLOAD,U,21059T,2023/1/26 14:09,528800,15.21979178,0.0008503,97.5764,161.1507,39.1838,321.0012,0,999,8778,0.0012545,0.00028668,0,3761951,0 SPACEBEE-105,1 48896U 21059T   23026.59026075  .00028668  00000-0  12545-2 0  9998,2 48896  97.5764 161.1507 0008503  39.1838 321.0012 15.21979178 87783,2021-059T,48896,6878.008,94.614,505.722,494.025,0,2023/2/19
GENERATED VIA SPACETRACK.ORG API,18 SPCS,48896,SPACEBEE-105,PAYLOAD,U,21059T,2023/1/26 20:28,182240,15.21992573,0.0008522,97.5764,161.4158,38.2183,321.9656,0,999,8782,0.0011546,0.00026382,0,3762171,0 SPACEBEE-105,1 48896U 21059T   23026.85324285  .00026382  00000-0  11546-2 0  9992,2 48896  97.5764 161.4158 0008522  38.2183 321.9656 15.21992573 87824,2021-059T,48896,6877.968,94.613,505.694,493.972,0,2023/2/20
GENERATED VIA SPACETRACK.ORG API,18 SPCS,48896,SPACEBEE-105,PAYLOAD,U,21059T,2023/1/27 7:31,586304,15.22013755,0.0008568,97.5763,161.8797,36.6132,323.5688,0,999,8789,0.0010059,0.00022979,0,3762956,0 SPACEBEE-105,1 48896U 21059T   23027.31345586  .00022979  00000-0  10059-2 0  9997,2 48896  97.5763 161.8797 0008568  36.6132 323.5688 15.22013755 87899,2021-059T,48896,6877.904,94.611,505.662,493.876,0,2023/2/21
GENERATED VIA SPACETRACK.ORG API,18 SPCS,48896,SPACEBEE-105,PAYLOAD,U,21059T,2023/1/27 21:43,823488,15.22043075,0.000853,97.5763,162.4755,35.1747,325.005,0,999,8798,0.0010132,0.00023167,0,3763337,0 SPACEBEE-105,1 48896U 21059T   23027.90514842  .00023167  00000-0  10132-2 0  9997,2 48896  97.5763 162.4755 0008530  35.1747 325.0050 15.22043075 87983,2021-059T,48896,6877.816,94.61,505.548,493.814,0,2023/2/22
GENERATED VIA SPACETRACK.ORG API,18 SPCS,48896,SPACEBEE-105,PAYLOAD,U,21059T,2023/1/28 8:46,927232,15.22063758,0.0008548,97.5764,162.9394,33.9122,326.2658,0,999,8805,0.0009824,0.00022472,0,3763924,0 SPACEBEE-105,1 48896U 21059T   23028.36534638  .00022472  00000-0  98240-3 0  9998,2 48896  97.5764 162.9394 0008548  33.9122 326.2658 15.22063758 88056,2021-059T,48896,6877.754,94.608,505.498,493.739,0,2023/2/23
GENERATED VIA SPACETRACK.ORG API,18 SPCS,48896,SPACEBEE-105,PAYLOAD,U,21059T,2023/1/28 21:23,575584,15.22083907,0.0008504,97.5764,163.4692,32.1931,327.9822,0,999,8813,0.00080771,0.00018464,0,3764201,0 SPACEBEE-105,1 48896U 21059T   23028.89127981  .00018464  00000-0  80771-3 0  9991,2 48896  97.5764 163.4692 0008504  32.1931 327.9822 15.22083907 88132,2021-059T,48896,6877.693,94.607,505.407,493.709,0,2023/2/24
GENERATED VIA SPACETRACK.ORG API,18 SPCS,48896,SPACEBEE-105,PAYLOAD,U,21059T,2023/1/28 22:58,608352,15.2208705,0.0008535,97.5765,163.5352,31.9668,328.2083,0,999,8814,0.00084346,0.00019288,0,3764307,0 SPACEBEE-105,1 48896U 21059T   23028.95702093  .00019288  00000-0  84346-3 0  9998,2 48896  97.5765 163.5352 0008535  31.9668 328.2083 15.22087050 88142,2021-059T,48896,6877.683,94.607,505.419,493.678,0,2023/2/25
GENERATED VIA SPACETRACK.ORG API,18 SPCS,48896,SPACEBEE-105,PAYLOAD,U,21059T,2023/1/29 21:03,76096,15.22121536,0.0008438,97.5762,164.4625,28.0973,332.0717,0,999,8828,0.00072771,0.00016642,0,3765015,0 SPACEBEE-105,1 48896U 21059T   23029.87738514  .00016642  00000-0  72771-3 0  9997,2 48896  97.5762 164.4625 0008438  28.0973 332.0717 15.22121536 88280,2021-059T,48896,6877.58,94.605,505.248,493.641,0,2023/2/26
GENERATED VIA SPACETRACK.ORG API,18 SPCS,48896,SPACEBEE-105,PAYLOAD,U,21059T,2023/1/30 8:06,194368,15.22136882,0.0008469,97.5762,164.9263,26.2523,333.914,0,999,8835,0.00073349,0.00016783,0,3765463,0 SPACEBEE-105,1 48896U 21059T   23030.33756012  .00016783  00000-0  73349-3 0  9991,2 48896  97.5762 164.9263 0008469  26.2523 333.9140 15.22136882 88356,2021-059T,48896,6877.533,94.604,505.223,493.574,0,2023/2/27
GENERATED VIA SPACETRACK.ORG API,18 SPCS,48896,SPACEBEE-105,PAYLOAD,U,21059T,2023/1/30 8:06,194368,15.22136882,0.0008469,97.5762,164.9263,26.2523,333.914,0,999,8835,0.00073349,0.00016783,0,3765576,0 SPACEBEE-105,1 48896U 21059T   23030.33756012  .00016783  00000-0  73349-3 0  9991,2 48896  97.5762 164.9263 0008469  26.2523 333.9140 15.22136882 88356,2021-059T,48896,6877.533,94.604,505.223,493.574,0,2023/2/28
GENERATED VIA SPACETRACK.ORG API,18 SPCS,48896,SPACEBEE-105,PAYLOAD,U,21059T,2023/1/30 14:24,497728,15.22145237,0.0008445,97.5762,165.1911,25.2905,334.8742,0,999,8839,0.00071089,0.00016266,0,3765849,0 SPACEBEE-105,1 48896U 21059T   23030.60051502  .00016266  00000-0  71089-3 0  9998,2 48896  97.5762 165.1911 0008445  25.2905 334.8742 15.22145237 88392,2021-059T,48896,6877.508,94.603,505.181,493.565,0,2023/3/1
GENERATED VIA SPACETRACK.ORG API,18 SPCS,48896,SPACEBEE-105,PAYLOAD,U,21059T,2023/1/30 23:52,222944,15.22159478,0.0008444,97.576,165.5885,23.9985,336.1643,0,999,8845,0.00074586,0.00017079,0,3766475,0 SPACEBEE-105,1 48896U 21059T   23030.99494471  .00017079  00000-0  74586-3 0  9994,2 48896  97.5760 165.5885 0008444  23.9985 336.1643 15.22159478 88450,2021-059T,48896,6877.465,94.602,505.138,493.523,0,2023/3/2
GENERATED VIA SPACETRACK.ORG API,18 SPCS,48896,SPACEBEE-105,PAYLOAD,U,21059T,2023/2/1 2:41,647328,15.22205722,0.0008332,97.576,166.7144,20.4527,339.7041,0,999,8862,0.00087945,0.00020186,0,3766880,0 SPACEBEE-105,1 48896U 21059T   23032.11247277  .00020186  00000-0  87945-3 0  9996,2 48896  97.5760 166.7144 0008332  20.4527 339.7041 15.22205722 88625,2021-059T,48896,6877.326,94.6,504.921,493.461,0,2023/3/3
GENERATED VIA SPACETRACK.ORG API,18 SPCS,48896,SPACEBEE-105,PAYLOAD,U,21059T,2023/2/1 7:25,354592,15.22213669,0.0008395,97.5767,166.9137,19.53,340.6256,0,999,8865,0.00085372,0.00019597,0,3767525,0 SPACEBEE-105,1 48896U 21059T   23032.30968003  .00019597  00000-0  85372-3 0  9990,2 48896  97.5767 166.9137 0008395  19.5300 340.6256 15.22213669 88654,2021-059T,48896,6877.302,94.599,504.941,493.394,0,2023/3/4
GENERATED VIA SPACETRACK.ORG API,18 SPCS,48896,SPACEBEE-105,PAYLOAD,U,21059T,2023/2/2 8:40,933888,15.22259886,0.0008387,97.5766,167.9738,16.6822,343.4688,0,999,8881,0.00093587,0.00021524,0,3768366,0 SPACEBEE-105,1 48896U 21059T   23033.36143442  .00021524  00000-0  93587-3 0  9999,2 48896  97.5766 167.9738 0008387  16.6822 343.4688 15.22259886 88818,2021-059T,48896,6877.163,94.596,504.796,493.26,0,2023/3/5
GENERATED VIA SPACETRACK.ORG API,18 SPCS,48896,SPACEBEE-105,PAYLOAD,U,21059T,2023/2/2 8:40,933888,15.22259886,0.0008387,97.5766,167.9738,16.6822,343.4688,0,999,8881,0.00093587,0.00021524,0,3768640,0 SPACEBEE-105,1 48896U 21059T   23033.36143442  .00021524  00000-0  93587-3 0  9999,2 48896  97.5766 167.9738 0008387  16.6822 343.4688 15.22259886 88818,2021-059T,48896,6877.163,94.596,504.796,493.26,0,2023/3/6
GENERATED VIA SPACETRACK.ORG API,18 SPCS,48896,SPACEBEE-105,PAYLOAD,U,21059T,2023/2/3 9:54,885760,15.2230177,0.0008265,97.5765,169.0339,13.4163,346.7291,0,999,8897,0.0008522,0.00019612,0,3770026,0 SPACEBEE-105,1 48896U 21059T   23034.41315840  .00019612  00000-0  85220-3 0  9999,2 48896  97.5765 169.0339 0008265  13.4163 346.7291 15.22301770 88978,2021-059T,48896,6877.037,94.594,504.586,493.218,0,2023/3/7
GENERATED VIA SPACETRACK.ORG API,18 SPCS,48896,SPACEBEE-105,PAYLOAD,U,21059T,2023/2/3 9:54,885760,15.2230177,0.0008265,97.5765,169.0339,13.4163,346.7291,0,999,8897,0.0008522,0.00019612,0,3770323,0 SPACEBEE-105,1 48896U 21059T   23034.41315840  .00019612  00000-0  85220-3 0  9999,2 48896  97.5765 169.0339 0008265  13.4163 346.7291 15.22301770 88978,2021-059T,48896,6877.037,94.594,504.586,493.218,0,2023/3/8
GENERATED VIA SPACETRACK.ORG API,18 SPCS,48896,SPACEBEE-105,PAYLOAD,U,21059T,2023/2/3 19:22,100544,15.22317174,0.0008198,97.5766,169.4312,11.9391,348.2037,0,999,8903,0.00083828,0.00019298,0,3770748,0 SPACEBEE-105,1 48896U 21059T   23034.80754746  .00019298  00000-0  83828-3 0  9996,2 48896  97.5766 169.4312 0008198  11.9391 348.2037 15.22317174 89033,2021-059T,48896,6876.99,94.593,504.493,493.218,0,2023/3/9
GENERATED VIA SPACETRACK.ORG API,18 SPCS,48896,SPACEBEE-105,PAYLOAD,U,21059T,2023/2/4 14:18,263488,15.22354402,0.000821,97.5768,170.2262,8.8521,351.2858,0,999,8915,0.00095244,0.00021968,0,3771952,0 SPACEBEE-105,1 48896U 21059T   23035.59631092  .00021968  00000-0  95244-3 0  9993,2 48896  97.5768 170.2262 0008210   8.8521 351.2858 15.22354402 89157,2021-059T,48896,6876.878,94.59,504.389,493.097,0,2023/3/10
